[{"OBJECT_NAME":"CHUANGXIN 1-02 (CX-1-02)","OBJECT_ID":"2008-056B","EPOCH":"2026-03-09T22:48:06.707232","MEAN_MOTION":14.30130448,"ECCENTRICITY":0.00153994,"INCLINATION":98.625,"RA_OF_ASC_NODE":96.1592,"ARG_OF_PERICENTER":73.2963,"MEAN_ANOMALY":286.9908,"EPHEMERIS_TYPE":0,"CLASSIFICATION_TYPE":"U","NORAD_CAT_ID":33434,"ELEMENT_SET_NO":999,"REV_AT_EPOCH":90443,"BSTAR":1.1632331e-5,"MEAN_MOTION_DOT":-1.4e-7,"MEAN_MOTION_DDOT":0},{"OBJECT_NAME":"UNKNOWN","OBJECT_ID":"","EPOCH":"2026-03-08T10:51:41.262624","MEAN_MOTION":14.21788685,"ECCENTRICITY":0.01020234,"INCLINATION":98.6814,"RA_OF_ASC_NODE":337.3442,"ARG_OF_PERICENTER":33.5666,"MEAN_ANOMALY":327.192,"EPHEMERIS_TYPE":0,"CLASSIFICATION_TYPE":"U","NORAD_CAT_ID":270342,"ELEMENT_SET_NO":999,"REV_AT_EPOCH":23476,"BSTAR":0.0032554652,"MEAN_MOTION_DOT":7.517e-5,"MEAN_MOTION_DDOT":0}]
